NORAD_CAT_ID,OBJECT_NAME,OBJECT_TYPE,EPOCH,MEAN_MOTION,ECCENTRICITY,INCLINATION,RA_OF_ASC_NODE,ARG_OF_PERICENTER,MEAN_ANOMALY,BSTAR,MEAN_MOTION_DOT,MEAN_MOTION_DDOT,TLE_LINE0,TLE_LINE1,TLE_LINE2,SEMIMAJOR_AXIS,PERIOD,APOGEE,PERIGEE,DECAYED
53869.0,STARLINK-4810,PAYLOAD,2023-05-07 14:44:56,15.08841689,0.0001355,53.2167,249.402,87.2022,272.9125,9.2408e-05,1.183e-05,0.0,0 STARLINK-4810,1 53869U 22114BD  23127.61454618  .00001183  00000-0  92408-4 0  9991,2 53869  53.2167 249.4020 0001355  87.2022 272.9125 15.08841689 36695,6917.875,95.437,540.678,538.803,0.0
53869.0,STARLINK-4810,PAYLOAD,2023-05-08 14:35:43,15.0884673,0.0001046,53.2158,244.9416,90.6025,269.5087,0.00018853,2.714e-05,0.0,0 STARLINK-4810,1 53869U 22114BD  23128.60814258  .00002714  00000-0  18853-3 0  9993,2 53869  53.2158 244.9416 0001046  90.6025 269.5087 15.08846730 36840,6917.86,95.437,540.448,539.001,0.0
53869.0,STARLINK-4810,PAYLOAD,2023-05-09 12:51:07,15.08840056,8.36e-05,53.2154,240.7785,87.1295,272.9793,9.0089e-05,1.146e-05,0.0,0 STARLINK-4810,1 53869U 22114BD  23129.53550600  .00001146  00000-0  90089-4 0  9994,2 53869  53.2154 240.7785 0000836  87.1295 272.9793 15.08840056 36987,6917.88,95.438,540.324,539.167,0.0
53869.0,STARLINK-4810,PAYLOAD,2023-05-10 12:41:55,15.08835577,0.0001069,53.2179,236.3216,98.7548,261.3565,1.7721e-05,-6e-08,0.0,0 STARLINK-4810,1 53869U 22114BD  23130.52911317 -.00000006  00000-0  17721-4 0  9998,2 53869  53.2179 236.3216 0001069  98.7548 261.3565 15.08835577 37131,6917.894,95.438,540.498,539.019,0.0
53869.0,STARLINK-4810,PAYLOAD,2023-05-11 10:57:18,15.08841693,0.0001169,53.2171,232.1595,101.0435,259.0688,3.5232e-05,2.73e-06,0.0,0 STARLINK-4810,1 53869U 22114BD  23131.45646934  .00000273  00000-0  35232-4 0  9993,2 53869  53.2171 232.1595 0001169 101.0435 259.0688 15.08841693 37272,6917.875,95.437,540.549,538.932,0.0
53869.0,STARLINK-4810,PAYLOAD,2023-05-11 14:08:05,15.08844238,8.77e-05,53.2172,231.5614,83.4579,276.6513,0.0001334,1.836e-05,0.0,0 STARLINK-4810,1 53869U 22114BD  23131.58894819  .00001836  00000-0  13340-3 0  9995,2 53869  53.2172 231.5614 0000877  83.4579 276.6513 15.08844238 37297,6917.867,95.437,540.339,539.126,0.0
53869.0,STARLINK-4810,PAYLOAD,2023-05-12 09:12:43,15.08832803,8.91e-05,53.2166,227.9922,80.768,279.3413,0.00012367,1.681e-05,0.0,0 STARLINK-4810,1 53869U 22114BD  23132.38383663  .00001681  00000-0  12367-3 0  9990,2 53869  53.2166 227.9922 0000891  80.7680 279.3413 15.08832803 37418,6917.902,95.438,540.384,539.151,0.0
53869.0,STARLINK-4810,PAYLOAD,2023-05-12 23:31:11,15.088424,9.96e-05,53.2182,225.3105,75.8067,284.3036,9.2602e-05,1.186e-05,0.0,0 STARLINK-4810,1 53869U 22114BD  23132.97999139  .00001186  00000-0  92602-4 0  9997,2 53869  53.2182 225.3105 0000996  75.8067 284.3036 15.08842400 36961,6917.873,95.437,540.427,539.049,0.0
53869.0,STARLINK-4810,PAYLOAD,2023-05-13 12:14:16,15.08839441,0.0001025,53.2179,222.932,86.3743,273.7366,-4.5048e-05,-1.005e-05,0.0,0 STARLINK-4810,1 53869U 22114BD  23133.50991756 -.00001005  00000-0 -45048-4 0  9998,2 53869  53.2179 222.9320 0001025  86.3743 273.7366 15.08839441 37040,6917.882,95.438,540.456,539.038,0.0
53869.0,STARLINK-4810,PAYLOAD,2023-05-14 12:05:03,15.08842829,9.76e-05,53.2172,218.4745,74.5372,285.5728,5.129e-05,5.29e-06,0.0,0 STARLINK-4810,1 53869U 22114BD  23134.50351326  .00000529  00000-0  51290-4 0  9996,2 53869  53.2172 218.4745 0000976  74.5372 285.5728 15.08842829 37738,6917.872,95.437,540.412,539.062,0.0
53869.0,STARLINK-4810,PAYLOAD,2023-05-14 15:15:49,15.0884515,9.56e-05,53.2174,217.8783,81.4316,278.6784,6.8481e-05,8.02e-06,0.0,0 STARLINK-4810,1 53869U 22114BD  23134.63599049  .00000802  00000-0  68481-4 0  9990,2 53869  53.2174 217.8783 0000956  81.4316 278.6784 15.08845150 37755,6917.865,95.437,540.391,539.068,0.0
53869.0,STARLINK-4810,PAYLOAD,2023-05-15 11:55:50,15.08839265,9.53e-05,53.2171,214.0125,81.1153,278.9947,8.3262e-05,1.038e-05,0.0,0 STARLINK-4810,1 53869U 22114BD  23135.49711421  .00001038  00000-0  83262-4 0  9991,2 53869  53.2171 214.0125 0000953  81.1153 278.9947 15.08839265 37343,6917.883,95.438,540.407,539.088,0.0
53869.0,STARLINK-4810,PAYLOAD,2023-05-15 15:06:36,15.08839013,9.63e-05,53.217,213.418,81.065,279.0451,7.9681e-05,9.81e-06,0.0,0 STARLINK-4810,1 53869U 22114BD  23135.62959456  .00000981  00000-0  79681-4 0  9994,2 53869  53.2170 213.4180 0000963  81.0650 279.0451 15.08839013 37903,6917.883,95.438,540.415,539.082,0.0
53869.0,STARLINK-4810,PAYLOAD,2023-05-16 10:11:14,15.08851614,0.0001057,53.217,209.8484,83.028,277.0832,-0.00019725,-3.427e-05,0.0,0 STARLINK-4810,1 53869U 22114BD  23136.42447436 -.00003427  00000-0 -19725-3 0  9995,2 53869  53.2170 209.8484 0001057  83.0280 277.0832 15.08851614 38021,6917.845,95.437,540.441,538.979,0.0
53869.0,STARLINK-4810,PAYLOAD,2023-05-16 21:18:56,15.08842689,9.56e-05,53.2169,207.7686,75.7684,284.3415,1.8376e-05,5e-08,0.0,0 STARLINK-4810,1 53869U 22114BD  23136.88815466  .00000005  00000-0  18376-4 0  9996,2 53869  53.2169 207.7686 0000956  75.7684 284.3415 15.08842689 37550,6917.872,95.437,540.399,539.076,0.0
53869.0,STARLINK-4810,PAYLOAD,2023-05-17 21:09:43,15.08834254,9.92e-05,53.2165,203.3099,73.8812,286.2289,7.7877e-05,9.52e-06,0.0,0 STARLINK-4810,1 53869U 22114BD  23137.88175871  .00000952  00000-0  77877-4 0  9998,2 53869  53.2165 203.3099 0000992  73.8812 286.2289 15.08834254 38244,6917.898,95.438,540.449,539.077,0.0
53869.0,STARLINK-4810,PAYLOAD,2023-05-18 13:03:35,15.08836821,9.05e-05,53.2163,200.3365,88.7935,271.3161,2.6117e-05,1.28e-06,0.0,0 STARLINK-4810,1 53869U 22114BD  23138.54415913  .00000128  00000-0  26117-4 0  9992,2 53869  53.2163 200.3365 0000905  88.7935 271.3161 15.08836821 38347,6917.89,95.438,540.381,539.129,0.0
53869.0,STARLINK-4810,PAYLOAD,2023-05-19 09:43:36,15.08840034,9.27e-05,53.2164,196.4711,89.1909,270.919,1.8833e-05,1.2e-07,0.0,0 STARLINK-4810,1 53869U 22114BD  23139.40527809  .00000012  00000-0  18833-4 0  9994,2 53869  53.2164 196.4711 0000927  89.1909 270.9190 15.08840034 37930,6917.88,95.438,540.387,539.104,0.0
53869.0,STARLINK-4810,PAYLOAD,2023-05-19 20:51:17,15.08839514,9.43e-05,53.2167,194.3882,82.7003,277.4097,3.0318e-05,1.95e-06,0.0,0 STARLINK-4810,1 53869U 22114BD  23139.86895783  .00000195  00000-0  30318-4 0  9997,2 53869  53.2167 194.3882 0000943  82.7003 277.4097 15.08839514 38548,6917.882,95.438,540.399,539.095,0.0
53869.0,STARLINK-4810,PAYLOAD,2023-05-20 11:09:45,15.08845503,9.29e-05,53.2163,191.7111,82.821,277.2888,9.1115e-05,1.163e-05,0.0,0 STARLINK-4810,1 53869U 22114BD  23140.46511218  .00001163  00000-0  91115-4 0  9991,2 53869  53.2163 191.7111 0000929  82.8210 277.2888 15.08845503 38096,6917.864,95.437,540.371,539.086,0.0
53869.0,STARLINK-4810,PAYLOAD,2023-05-20 20:42:04,15.0884736,9.68e-05,53.2164,189.9282,79.8893,280.2209,9.9172e-05,1.291e-05,0.0,0 STARLINK-4810,1 53869U 22114BD  23140.86254950  .00001291  00000-0  99172-4 0  9995,2 53869  53.2164 189.9282 0000968  79.8893 280.2209 15.08847360 38691,6917.858,95.437,540.393,539.053,0.0
53869.0,STARLINK-4810,PAYLOAD,2023-05-21 09:25:09,15.08846169,0.0001046,53.2164,187.551,77.1291,282.9818,5.7665e-05,6.3e-06,0.0,0 STARLINK-4810,1 53869U 22114BD  23141.39247035  .00000630  00000-0  57665-4 0  9997,2 53869  53.2164 187.5510 0001046  77.1291 282.9818 15.08846169 38770,6917.862,95.437,540.45,539.003,0.0
53869.0,STARLINK-4810,PAYLOAD,2023-05-21 20:32:51,15.08841568,0.0001019,53.216,185.4691,76.3478,283.7627,1.4431e-05,-5.8e-07,0.0,0 STARLINK-4810,1 53869U 22114BD  23141.85615315 -.00000058  00000-0  14431-4 0  9997,2 53869  53.2160 185.4691 0001019  76.3478 283.7627 15.08841568 38844,6917.876,95.437,540.446,539.036,0.0
53869.0,STARLINK-4810,PAYLOAD,2023-05-22 09:15:57,15.08827854,0.0001077,53.2167,183.091,77.6878,282.4235,5.4864e-05,5.85e-06,0.0,0 STARLINK-4810,1 53869U 22114BD  23142.38608240  .00000585  00000-0  54864-4 0  9993,2 53869  53.2167 183.0910 0001077  77.6878 282.4235 15.08827854 38383,6917.918,95.438,540.528,539.037,0.0
53869.0,STARLINK-4810,PAYLOAD,2023-05-22 12:26:43,15.08836049,9.33e-05,53.2165,182.4933,96.4263,263.6835,-7.7825e-05,-1.526e-05,0.0,0 STARLINK-4810,1 53869U 22114BD  23142.51856015 -.00001526  00000-0 -77825-4 0  9993,2 53869  53.2165 182.4933 0000933  96.4263 263.6835 15.08836049 38941,6917.892,95.438,540.403,539.112,0.0
53869.0,STARLINK-4810,PAYLOAD,2023-05-23 02:45:11,15.08837048,8.18e-05,53.2167,179.8172,99.5741,260.5344,-9.7439e-06,-4.43e-06,0.0,0 STARLINK-4810,1 53869U 22114BD  23143.11471770 -.00000443  00000-0 -97439-5 0  9992,2 53869  53.2167 179.8172 0000818  99.5741 260.5344 15.08837048 38496,6917.889,95.438,540.32,539.189,0.0
53869.0,STARLINK-4810,PAYLOAD,2023-05-23 15:28:16,15.08841103,8.42e-05,53.2158,177.4385,106.9241,253.1843,-8.0889e-06,-4.16e-06,0.0,0 STARLINK-4810,1 53869U 22114BD  23143.64463567 -.00000416  00000-0 -80889-5 0  9996,2 53869  53.2158 177.4385 0000842 106.9241 253.1843 15.08841103 39110,6917.877,95.437,540.325,539.16,0.0
53869.0,STARLINK-4810,PAYLOAD,2023-05-24 08:57:31,15.08832546,8.41e-05,53.2158,174.1677,96.7308,263.378,7.4106e-05,8.92e-06,0.0,0 STARLINK-4810,1 53869U 22114BD  23144.37328245  .00000892  00000-0  74106-4 0  9990,2 53869  53.2158 174.1677 0000841  96.7308 263.3780 15.08832546 38682,6917.903,95.438,540.35,539.186,0.0
53869.0,STARLINK-4810,PAYLOAD,2023-05-26 02:17:33,15.08835997,8.34e-05,53.2156,166.4346,83.3636,276.7451,5.735e-05,6.25e-06,0.0,0 STARLINK-4810,1 53869U 22114BD  23146.09552664  .00000625  00000-0  57350-4 0  9991,2 53869  53.2156 166.4346 0000834  83.3636 276.7451 15.08835997 38940,6917.893,95.438,540.335,539.181,0.0
53869.0,STARLINK-4810,PAYLOAD,2023-05-26 08:39:06,15.08837966,8.5e-05,53.216,165.247,88.2797,271.8292,4.9059e-05,4.93e-06,0.0,0 STARLINK-4810,1 53869U 22114BD  23146.36048628  .00000493  00000-0  49059-4 0  9991,2 53869  53.2160 165.2470 0000850  88.2797 271.8292 15.08837966 39522,6917.887,95.438,540.34,539.164,0.0
